0 SL-12 DEB
1 24938U 92047K   13282.17480431  .00181656  38427-6  15655-2 0  6181
2 24938 064.0509 121.4144 3510779 016.4461 048.4087 08.51256116395253
0 SL-12 DEB
1 24938U 92047K   13282.52287212  .00183610  38462-6  15803-2 0  6199
2 24938 064.0510 121.0238 3510096 016.4259 035.1283 08.51397032395289
0 SL-12 DEB
1 24938U 92047K   13282.87293757  .00177882  38474-6  15313-2 0  6203
2 24938 064.0512 120.6307 3509486 016.4066 028.1586 08.51514447395313
0 SL-12 DEB
1 24938U 92047K   13283.11536896  .00179519  38496-6  15449-2 0  6219
2 24938 064.0511 120.3585 3509087 016.3933 051.3501 08.51593916395331
0 SL-12 DEB
1 24938U 92047K   13283.52899424  .00182141  38535-6  15672-2 0  6221
2 24938 064.0513 119.8942 3508334 016.3711 239.5170 08.51741071395374
0 SL-12 DEB
1 24938U 92047K   13283.56589258  .00248028  00000-0  22245-2 0  6238
2 24938 064.0490 119.8480 3506900 016.3688 352.6532 08.51734976395370
0 SL-12 DEB
1 24938U 92047K   13283.82145856  .00184500  38561-6  15862-2 0  6239
2 24938 064.0512 119.5656 3507887 016.3550 056.3444 08.51833109395390
0 SL-12 DEB
1 24938U 92047K   13284.20251981  .00177140  38570-6  15237-2 0  6248
2 24938 064.0512 119.1377 3507250 016.3323 145.0041 08.51953780395429
0 SL-12 DEB
1 24938U 92047K   13285.48481883  .00167524  38643-6  14397-2 0  6270
2 24938 064.0506 117.6960 3505115 016.2647 118.8516 08.52374662395544
0 SL-12 DEB
1 24938U 92047K   13285.81484081  .00169966  38676-6  14599-2 0  6283
2 24938 064.0502 117.3246 3504547 016.2464 051.6095 08.52488366395575
0 SL-12 DEB
1 24938U 92047K   13286.09354299  .00168026  38690-6  14431-2 0  6299
2 24938 064.0502 117.0113 3504130 016.2303 186.9804 08.52570084395596
0 SL-12 DEB
1 24938U 92047K   13286.51407660  .00168336  38725-6  14468-2 0  6302
2 24938 064.0496 116.5378 3503389 016.2074 037.8227 08.52709302395629
0 SL-12 DEB
1 24938U 92047K   13286.86475186  .00170307  38756-6  14628-2 0  6312
2 24938 064.0492 116.1431 3502828 016.1890 034.3864 08.52822376395652
0 SL-12 DEB
1 24938U 92047K   13287.10564955  .00164305  38758-6  14129-2 0  6323
2 24938 064.0489 115.8717 3502445 016.1751 054.0240 08.52889409395671
0 SL-12 DEB
1 24938U 92047K   13287.44993640  .00173479  38807-6  14913-2 0  6336
2 24938 064.0486 115.4840 3501880 016.1573 031.2034 08.53000849395701
0 SL-12 DEB
1 24938U 92047K   13287.80357009  .00182005  38857-6  15626-2 0  6342
2 24938 064.0483 115.0855 3501284 016.1375 037.2324 08.53124580395738
0 SL-12 DEB
1 24938U 92047K   13288.04868508  .00196189  38913-6  16833-2 0  6353
2 24938 064.0481 114.8094 3500834 016.1235 070.0955 08.53215631395758
0 SL-12 DEB
1 24938U 92047K   13288.50710431  .00196145  38959-6  16828-2 0  6362
2 24938 064.0477 114.2927 3499821 016.0979 038.3351 08.53412911395790
0 SL-12 DEB
1 24938U 92047K   13288.86057698  .00182362  38953-6  15641-2 0  6373
2 24938 064.0475 113.8941 3499204 016.0785 044.3849 08.53535219395829
0 SL-12 DEB
1 24938U 92047K   13289.13754691  .00182390  38974-6  15654-2 0  6380
2 24938 064.0474 113.5819 3498733 016.0623 175.4955 08.53622295395854
0 SL-12 DEB
1 24938U 92047K   13289.44221285  .00185117  39006-6  15892-2 0  6394
2 24938 064.0471 113.2381 3498181 016.0456 031.8145 08.53727821395872
0 SL-12 DEB
1 24938U 92047K   13289.80513633  .00187954  39041-6  16128-2 0  6400
2 24938 064.0470 112.8288 3497560 016.0246 067.3286 08.53851419395904
0 SL-12 DEB
1 24938U 92047K   13290.19364538  .00184092  39061-6  15794-2 0  6413
2 24938 064.0471 112.3906 3496885 016.0013 181.6629 08.53983841395948
0 SL-12 DEB
1 24938U 92047K   13290.49846847  .00190701  39102-6  16360-2 0  6425
2 24938 064.0469 112.0464 3496346 015.9839 038.8605 08.54088723395962
0 SL-12 DEB
1 24938U 92047K   13290.74204007  .00187366  39112-6  16064-2 0  6435
2 24938 064.0469 111.7714 3495951 015.9701 067.8226 08.54169641395987
0 SL-12 DEB
1 24938U 92047K   13291.08866022  .00181584  39126-6  15569-2 0  6445
2 24938 064.0469 111.3801 3495324 015.9493 053.7811 08.54291428396010
0 SL-12 DEB
1 24938U 92047K   13291.51337542  .00184506  39164-6  15806-2 0  6457
2 24938 064.0473 110.9005 3494606 015.9263 280.0998 08.54436445396058
0 SL-12 DEB
1 24938U 92047K   13291.79324961  .00180693  39174-6  15467-2 0  6466
2 24938 064.0474 110.5844 3494176 015.9088 061.0443 08.54525406396073
0 SL-12 DEB
1 24938U 92047K   13292.03025225  .00176078  39181-6  15076-2 0  6472
2 24938 064.0475 110.3166 3493744 015.8933 070.1875 08.54607813396092
0 SL-12 DEB
1 24938U 92047K   13292.48818562  .00180112  39226-6  15413-2 0  6485
2 24938 064.0477 109.7993 3492960 015.8672 039.2145 08.54763600396131
0 SL-12 DEB
1 24938U 92047K   13292.84141522  .00177038  39243-6  15132-2 0  6491
2 24938 064.0480 109.4002 3492414 015.8471 046.2470 08.54877627396161
0 SL-12 DEB
1 24938U 92047K   13293.13235957  .00176578  39261-6  15077-2 0  6508
2 24938 064.0483 109.0716 3491985 015.8307 221.7155 08.54967834396195
0 SL-12 DEB
1 24938U 92047K   13293.54139459  .00185182  39314-6  15808-2 0  6516
2 24938 064.0484 108.6090 3491258 015.8066 040.8099 08.55110292396221
0 SL-12 DEB
1 24938U 92047K   13293.77426178  .00181403  39319-6  15476-2 0  6527
2 24938 064.0487 108.3457 3490927 015.7931 037.7131 08.55178776396245
0 SL-12 DEB
1 24938U 92047K   13294.07720939  .00180134  39337-6  15353-2 0  6538
2 24938 064.0489 108.0031 3490461 015.7760 250.4577 08.55275724396277
0 SL-12 DEB
1 24938U 92047K   13294.47630922  .00188445  39390-6  16064-2 0  6547
2 24938 064.0489 107.5516 3489745 015.7529 039.4225 08.55413500396300
0 SL-12 DEB
1 24938U 92047K   13294.82891478  .00191005  39422-6  16248-2 0  6558
2 24938 064.0492 107.1529 3489176 015.7334 045.3698 08.55537803396332
0 SL-12 DEB
1 24938U 92047K   13295.52734547  .00191383  39477-6  16259-2 0  6561
2 24938 064.0496 106.3625 3487992 015.6943 036.8174 08.55776539396394
0 SL-12 DEB
1 24938U 92047K   13296.00513784  .00180488  39483-6  15326-2 0  6579
2 24938 064.0499 105.8214 3487226 015.6657 068.9477 08.55929097396433
